{
  "links" : {
    "next" : "https://api.nasa.gov/neo/rest/v1/feed?start_date=2010-02-23&end_date=2010-02-23&detailed=true&api_key=t0TVs3DtDT2H8Oy2Zy8m2eVrNsAVKAexjcZXUckd",
    "prev" : "https://api.nasa.gov/neo/rest/v1/feed?start_date=2010-02-21&end_date=2010-02-21&detailed=true&api_key=t0TVs3DtDT2H8Oy2Zy8m2eVrNsAVKAexjcZXUckd",
    "self" : "https://api.nasa.gov/neo/rest/v1/feed?start_date=2010-02-22&end_date=2010-02-22&detailed=true&api_key=t0TVs3DtDT2H8Oy2Zy8m2eVrNsAVKAexjcZXUckd"
  },
  "element_count" : 10,
  "near_earth_objects" : {
    "2010-02-22" : [ {
      "links" : {
        "self" : "https://api.nasa.gov/neo/rest/v1/neo/3508119?api_key=t0TVs3DtDT2H8Oy2Zy8m2eVrNsAVKAexjcZXUckd"
      },
      "neo_reference_id" : "3508119",
      "name" : "(2010 CO19)",
      "nasa_jpl_url" : "http://ssd.jpl.nasa.gov/sbdb.cgi?sstr=3508119",
      "absolute_magnitude_h" : 25.7,
      "estimated_diameter" : {
        "kilometers" : {
          "estimated_diameter_min" : 0.0192555078,
          "estimated_diameter_max" : 0.0430566244
        },
        "meters" : {
          "estimated_diameter_min" : 19.2555078188,
          "estimated_diameter_max" : 43.0566244241
        },
        "miles" : {
          "estimated_diameter_min" : 0.0119648141,
          "estimated_diameter_max" : 0.0267541378
        },
        "feet" : {
          "estimated_diameter_min" : 63.1742402722,
          "estimated_diameter_max" : 141.2618956756
        }
      },
      "is_potentially_hazardous_asteroid" : false,
      "close_approach_data" : [ {
        "close_approach_date" : "2010-02-22",
        "epoch_date_close_approach" : 1266825600000,
        "relative_velocity" : {
          "kilometers_per_second" : "6.1684773397",
          "kilometers_per_hour" : "22206.5184230675",
          "miles_per_hour" : "13798.2669612666"
        },
        "miss_distance" : {
          "astronomical" : "0.0609383368",
          "lunar" : "23.7050132751",
          "kilometers" : "9116245",
          "miles" : "5664572.5"
        },
        "orbiting_body" : "Earth"
      } ],
      "orbital_data" : {
        "orbit_id" : "8",
        "orbit_determination_date" : "2017-04-06 08:58:24",
        "orbit_uncertainty" : "8",
        "minimum_orbit_intersection" : ".0585148",
        "jupiter_tisserand_invariant" : "4.733",
        "epoch_osculation" : "2455243.5",
        "eccentricity" : ".258348085432487",
        "semi_major_axis" : "1.387780759520505",
        "inclination" : "9.770768383586681",
        "ascending_node_longitude" : "323.8340454289975",
        "orbital_period" : "597.1448896032477",
        "perihelion_distance" : "1.02925025729834",
        "perihelion_argument" : "208.1055778511108",
        "aphelion_distance" : "1.74631126174267",
        "perihelion_time" : "2455268.264602285300",
        "mean_anomaly" : "345.0701948925135",
        "mean_motion" : ".6028687614478113",
        "equinox" : "J2000"
      }
    }, {
      "links" : {
        "self" : "https://api.nasa.gov/neo/rest/v1/neo/3508160?api_key=t0TVs3DtDT2H8Oy2Zy8m2eVrNsAVKAexjcZXUckd"
      },
      "neo_reference_id" : "3508160",
      "name" : "(2010 DE2)",
      "nasa_jpl_url" : "http://ssd.jpl.nasa.gov/sbdb.cgi?sstr=3508160",
      "absolute_magnitude_h" : 26.8,
      "estimated_diameter" : {
        "kilometers" : {
          "estimated_diameter_min" : 0.0116025908,
          "estimated_diameter_max" : 0.0259441818
        },
        "meters" : {
          "estimated_diameter_min" : 11.6025908209,
          "estimated_diameter_max" : 25.9441817907
        },
        "miles" : {
          "estimated_diameter_min" : 0.0072095135,
          "estimated_diameter_max" : 0.0161209622
        },
        "feet" : {
          "estimated_diameter_min" : 38.066244069,
          "estimated_diameter_max" : 85.1187093863
        }
      },
      "is_potentially_hazardous_asteroid" : false,
      "close_approach_data" : [ {
        "close_approach_date" : "2010-02-22",
        "epoch_date_close_approach" : 1266825600000,
        "relative_velocity" : {
          "kilometers_per_second" : "5.8036289872",
          "kilometers_per_hour" : "20893.064353889",
          "miles_per_hour" : "12982.1376814484"
        },
        "miss_distance" : {
          "astronomical" : "0.0098715373",
          "lunar" : "3.8400278091",
          "kilometers" : "1476760.875",
          "miles" : "917616.6875"
        },
        "orbiting_body" : "Earth"
      } ],
      "orbital_data" : {
        "orbit_id" : "8",
        "orbit_determination_date" : "2017-04-06 08:58:15",
        "orbit_uncertainty" : "7",
        "minimum_orbit_intersection" : ".00582113",
        "jupiter_tisserand_invariant" : "4.378",
        "epoch_osculation" : "2458000.5",
        "eccentricity" : ".3582314765791735",
        "semi_major_axis" : "1.546891816642623",
        "inclination" : "4.70987185872043",
        "ascending_node_longitude" : "336.8884033056262",
        "orbital_period" : "702.7297501113701",
        "perihelion_distance" : ".9927464770584959",
        "perihelion_argument" : "187.644975931904",
        "aphelion_distance" : "2.10103715622675",
        "perihelion_time" : "2458070.409629875998",
        "mean_anomaly" : "324.1861373431671",
        "mean_motion" : ".5122879740653451",
        "equinox" : "J2000"
      }
    }, {
      "links" : {
        "self" : "https://api.nasa.gov/neo/rest/v1/neo/2234341?api_key=t0TVs3DtDT2H8Oy2Zy8m2eVrNsAVKAexjcZXUckd"
      },
      "neo_reference_id" : "2234341",
      "name" : "234341 (2001 FZ57)",
      "nasa_jpl_url" : "http://ssd.jpl.nasa.gov/sbdb.cgi?sstr=2234341",
      "absolute_magnitude_h" : 18.9,
      "estimated_diameter" : {
        "kilometers" : {
          "estimated_diameter_min" : 0.4411182,
          "estimated_diameter_max" : 0.9863702813
        },
        "meters" : {
          "estimated_diameter_min" : 441.1181999969,
          "estimated_diameter_max" : 986.3702813054
        },
        "miles" : {
          "estimated_diameter_min" : 0.2740980571,
          "estimated_diameter_max" : 0.6129018881
        },
        "feet" : {
          "estimated_diameter_min" : 1447.2382352778,
          "estimated_diameter_max" : 3236.1230737181
        }
      },
      "is_potentially_hazardous_asteroid" : false,
      "close_approach_data" : [ {
        "close_approach_date" : "2010-02-22",
        "epoch_date_close_approach" : 1266825600000,
        "relative_velocity" : {
          "kilometers_per_second" : "14.9458378835",
          "kilometers_per_hour" : "53805.0163806727",
          "miles_per_hour" : "33432.3447616463"
        },
        "miss_distance" : {
          "astronomical" : "0.4643872604",
          "lunar" : "180.6466522217",
          "kilometers" : "69471344",
          "miles" : "43167492"
        },
        "orbiting_body" : "Earth"
      } ],
      "orbital_data" : {
        "orbit_id" : "66",
        "orbit_determination_date" : "2017-04-06 09:25:05",
        "orbit_uncertainty" : "0",
        "minimum_orbit_intersection" : ".157706",
        "jupiter_tisserand_invariant" : "6.146",
        "epoch_osculation" : "2458000.5",
        "eccentricity" : ".6042911484725393",
        "semi_major_axis" : ".9441933327267696",
        "inclination" : "20.66894627326731",
        "ascending_node_longitude" : "22.10832936425098",
        "orbital_period" : "335.111877499897",
        "perihelion_distance" : ".3736256593131956",
        "perihelion_argument" : "339.9754220666098",
        "aphelion_distance" : "1.514761006140344",
        "perihelion_time" : "2458165.285014969377",
        "mean_anomaly" : "182.9767150255848",
        "mean_motion" : "1.074268100211132",
        "equinox" : "J2000"
      }
    } ]
  }
}